{"type": "FeatureCollection", "features": [ {"type": "Feature", "properties": {"norad_id": 65304, "name": "DRAGON CRS-33", "group": "stations", "lat": 48.835226030665005, "lon": 150.87985783712378, "alt_km": 412.3484333460992, "timestamp": "2025-12-24T03:53:28.395354+00:00", "meta": {"OBJECT_NAME": "DRAGON CRS-33", "OBJECT_ID": "2025-186A", "EPOCH": "2025-12-23T04:21:36.091008", "MEAN_MOTION": 15.49746572, "ECCENTRICITY": 0.00031904, "INCLINATION": 51.6323, "RA_OF_ASC_NODE": 90.7678, "ARG_OF_PERICENTER": 289.6661, "MEAN_ANOMALY": 70.3984, "EPHEMERIS_TYPE": 0, "CLASSIFICATION_TYPE": "U", "NORAD_CAT_ID": 65304, "ELEMENT_SET_NO": 999, "REV_AT_EPOCH": 11, "BSTAR": 0.00021350548, "MEAN_MOTION_DOT": 0.00011641, "MEAN_MOTION_DDOT": 0}, "tle": {"line1": "1 65304U 25186A   25357.18166772  .00011641  00000+0  21351-3 0  9997", "line2": "2 65304  51.6323  90.7678 0003190 289.6661  70.3984 15.49746572   111"}}, "geometry": {"type": "Point", "coordinates": [150.87985783712378, 48.835226030665005]}}, {"type": "Feature", "properties": {"norad_id": 65586, "name": "PROGRESS-MS 32", "group": "stations", "lat": 48.835226309523854, "lon": 150.87985904159152, "alt_km": 412.3484333266688, "timestamp": "2025-12-24T03:53:28.395367+00:00", "meta": {"OBJECT_NAME": "PROGRESS-MS 32", "OBJECT_ID": "2025-204A", "EPOCH": "2025-12-23T04:21:36.091008", "MEAN_MOTION": 15.49746572, "ECCENTRICITY": 0.00031904, "INCLINATION": 51.6323, "RA_OF_ASC_NODE": 90.7678, "ARG_OF_PERICENTER": 289.6661, "MEAN_ANOMALY": 70.3984, "EPHEMERIS_TYPE": 0, "CLASSIFICATION_TYPE": "U", "NORAD_CAT_ID": 65586, "ELEMENT_SET_NO": 999, "REV_AT_EPOCH": 27, "BSTAR": 0.00021350548, "MEAN_MOTION_DOT": 0.00011641, "MEAN_MOTION_DDOT": 0}, "tle": {"line1": "1 65586U 25204A   25357.18166772  .00011641  00000+0  21351-3 0  9990", "line2": "2 65586  51.6323  90.7678 0003190 289.6661  70.3984 15.49746572   270"}}, "geometry": {"type": "Point", "coordinates": [150.87985904159152, 48.835226309523854]}}, {"type": "Feature", "properties": {"norad_id": 65616, "name": "CYGNUS NG-23", "group": "stations", "lat": 48.83522652403137, "lon": 150.87985996810826, "alt_km": 412.34843331172397, "timestamp": "2025-12-24T03:53:28.395377+00:00", "meta": {"OBJECT_NAME": "CYGNUS NG-23", "OBJECT_ID": "2025-208A", "EPOCH": "2025-12-23T04:21:36.091008", "MEAN_MOTION": 15.49746572, "ECCENTRICITY": 0.00031904, "INCLINATION": 51.6323, "RA_OF_ASC_NODE": 90.7678, "ARG_OF_PERICENTER": 289.6661, "MEAN_ANOMALY": 70.3984, "EPHEMERIS_TYPE": 0, "CLASSIFICATION_TYPE": "U", "NORAD_CAT_ID": 65616, "ELEMENT_SET_NO": 999, "REV_AT_EPOCH": 22, "BSTAR": 0.00021350548, "MEAN_MOTION_DOT": 0.00011641, "MEAN_MOTION_DDOT": 0}, "tle": {"line1": "1 65616U 25208A   25357.18166772  .00011641  00000+0  21351-3 0  9998", "line2": "2 65616  51.6323  90.7678 0003190 289.6661  70.3984 15.49746572   229"}}, "geometry": {"type": "Point", "coordinates": [150.87985996810826, 48.83522652403137]}}, {"type": "Feature", "properties": {"norad_id": 65729, "name": "DRAGONFLY", "group": "stations", "lat": -24.89104425515143, "lon": 55.531655601257675, "alt_km": 340.608974755316, "timestamp": "2025-12-24T03:53:28.395387+00:00", "meta": {"OBJECT_NAME": "DRAGONFLY", "OBJECT_ID": "1998-067XH", "EPOCH": "2025-12-23T14:19:46.042752", "MEAN_MOTION": 15.75592053, "ECCENTRICITY": 0.0007867, "INCLINATION": 51.6249, "RA_OF_ASC_NODE": 80.0166, "ARG_OF_PERICENTER": 342.4856, "MEAN_ANOMALY": 17.5871, "EPHEMERIS_TYPE": 0, "CLASSIFICATION_TYPE": "U", "NORAD_CAT_ID": 65729, "ELEMENT_SET_NO": 999, "REV_AT_EPOCH": 1487, "BSTAR": 0.0012194, "MEAN_MOTION_DOT": 0.0019422, "MEAN_MOTION_DDOT": 0}, "tle": {"line1": "1 65729U 98067XH  25357.59706068  .00194220  00000+0  12194-2 0  9998", "line2": "2 65729  51.6249  80.0166 0007867 342.4856  17.5871 15.75592053 14870"}}, "geometry": {"type": "Point", "coordinates": [55.531655601257675, -24.89104425515143]}}, {"type": "Feature", "properties": {"norad_id": 65731, "name": "1998-067XK", "group": "stations", "lat": 44.26587168311818, "lon": 129.74695892883457, "alt_km": 359.8633279577198, "timestamp": "2025-12-24T03:53:28.395398+00:00", "meta": {"OBJECT_NAME": "1998-067XK", "OBJECT_ID": "1998-067XK", "EPOCH": "2025-12-23T06:12:26.032896", "MEAN_MOTION": 15.67713225, "ECCENTRICITY": 0.00049619, "INCLINATION": 51.6292, "RA_OF_ASC_NODE": 83.7873, "ARG_OF_PERICENTER": 312.0823, "MEAN_ANOMALY": 47.9751, "EPHEMERIS_TYPE": 0, "CLASSIFICATION_TYPE": "U", "NORAD_CAT_ID": 65731, "ELEMENT_SET_NO": 999, "REV_AT_EPOCH": 1479, "BSTAR": 0.00091991075, "MEAN_MOTION_DOT": 0.00103596, "MEAN_MOTION_DDOT": 0}, "tle": {"line1": "1 65731U 98067XK  25357.25863464  .00103596  00000+0  91991-3 0  9997", "line2": "2 65731  51.6292  83.7873 0004961 312.0823  47.9751 15.67713225 14797"}}, "geometry": {"type": "Point", "coordinates": [129.74695892883457, 44.26587168311818]}}, {"type": "Feature", "properties": {"norad_id": 65732, "name": "RSP-03", "group": "stations", "lat": 8.736505320765078, "lon": -108.79209422711003, "alt_km": 357.62979924256615, "timestamp": "2025-12-24T03:53:28.395411+00:00", "meta": {"OBJECT_NAME": "RSP-03", "OBJECT_ID": "1998-067XL", "EPOCH": "2025-12-23T11:54:48.750048", "MEAN_MOTION": 15.71335207, "ECCENTRICITY": 0.0005906, "INCLINATION": 51.6265, "RA_OF_ASC_NODE": 81.6104, "ARG_OF_PERICENTER": 319.9929, "MEAN_ANOMALY": 40.0633, "EPHEMERIS_TYPE": 0, "CLASSIFICATION_TYPE": "U", "NORAD_CAT_ID": 65732, "ELEMENT_SET_NO": 999, "REV_AT_EPOCH": 1485, "BSTAR": 0.0010641, "MEAN_MOTION_DOT": 0.00140046, "MEAN_MOTION_DDOT": 0}, "tle": {"line1": "1 65732U 98067XL  25357.49639757  .00140046  00000+0  10641-2 0  9993", "line2": "2 65732  51.6265  81.6104 0005906 319.9929  40.0633 15.71335207 14850"}}, "geometry": {"type": "Point", "coordinates": [-108.79209422711003, 8.736505320765078]}}, {"type": "Feature", "properties": {"norad_id": 65733, "name": "GHS-01", "group": "stations", "lat": 19.633379608222313, "lon": 92.66335033627718, "alt_km": 323.7347854360223, "timestamp": "2025-12-24T03:53:28.395421+00:00", "meta": {"OBJECT_NAME": "GHS-01", "OBJECT_ID": "1998-067XM", "EPOCH": "2025-12-23T11:05:04.303968", "MEAN_MOTION": 15.79591896, "ECCENTRICITY": 0.00088, "INCLINATION": 51.6283, "RA_OF_ASC_NODE": 79.8731, "ARG_OF_PERICENTER": 346.0913, "MEAN_ANOMALY": 13.9844, "EPHEMERIS_TYPE": 0, "CLASSIFICATION_TYPE": "U", "NORAD_CAT_ID": 65733, "ELEMENT_SET_NO": 999, "REV_AT_EPOCH": 1487, "BSTAR": 0.0014328, "MEAN_MOTION_DOT": 0.00275731, "MEAN_MOTION_DDOT": 0}, "tle": {"line1": "1 65733U 98067XM  25357.46185537  .00275731  00000+0  14328-2 0  9999", "line2": "2 65733  51.6283  79.8731 0008800 346.0913  13.9844 15.79591896 14877"}}, "geometry": {"type": "Point", "coordinates": [92.66335033627718, 19.633379608222313]}}, {"type": "Feature", "properties": {"norad_id": 65941, "name": "YOTSUBA-KULOVER", "group": "stations", "lat": -51.57514457585916, "lon": -4.676316093118626, "alt_km": 389.19460758828336, "timestamp": "2025-12-24T03:53:28.395432+00:00", "meta": {"OBJECT_NAME": "YOTSUBA-KULOVER", "OBJECT_ID": "1998-067XN", "EPOCH": "2025-12-23T06:45:22.876128", "MEAN_MOTION": 15.6082914, "ECCENTRICITY": 0.00022338, "INCLINATION": 51.6291, "RA_OF_ASC_NODE": 86.9403, "ARG_OF_PERICENTER": 346.8625, "MEAN_ANOMALY": 13.231, "EPHEMERIS_TYPE": 0, "CLASSIFICATION_TYPE": "U", "NORAD_CAT_ID": 65941, "ELEMENT_SET_NO": 999, "REV_AT_EPOCH": 1150, "BSTAR": 0.00082116057, "MEAN_MOTION_DOT": 0.00069963, "MEAN_MOTION_DDOT": 0}, "tle": {"line1": "1 65941U 98067XN  25357.28151477  .00069963  00000+0  82116-3 0  9995", "line2": "2 65941  51.6291  86.9403 0002233 346.8625  13.2310 15.60829140 11508"}}, "geometry": {"type": "Point", "coordinates": [-4.676316093118626, -51.57514457585916]}}, {"type": "Feature", "properties": {"norad_id": 65942, "name": "BOTAN", "group": "stations", "lat": 29.39618049180562, "lon": 107.99917616245575, "alt_km": 368.10810120875067, "timestamp": "2025-12-24T03:53:28.395443+00:00", "meta": {"OBJECT_NAME": "BOTAN", "OBJECT_ID": "1998-067XP", "EPOCH": "2025-12-23T06:16:22.684224", "MEAN_MOTION": 15.65035738, "ECCENTRICITY": 0.00032278, "INCLINATION": 51.6284, "RA_OF_ASC_NODE": 86.0542, "ARG_OF_PERICENTER": 325.6529, "MEAN_ANOMALY": 34.4257, "EPHEMERIS_TYPE": 0, "CLASSIFICATION_TYPE": "U", "NORAD_CAT_ID": 65942, "ELEMENT_SET_NO": 999, "REV_AT_EPOCH": 1151, "BSTAR": 0.0011276843, "MEAN_MOTION_DOT": 0.001142, "MEAN_MOTION_DDOT": 0}, "tle": {"line1": "1 65942U 98067XP  25357.26137366  .00114200  00000+0  11277-2 0  9999", "line2": "2 65942  51.6284  86.0542 0003227 325.6529  34.4257 15.65035738 11511"}}, "geometry": {"type": "Point", "coordinates": [107.99917616245575, 29.39618049180562]}}, {"type": "Feature", "properties": {"norad_id": 65943, "name": "E-KAGAKU-1", "group": "stations", "lat": -51.59608240748152, "lon": -5.570437064993189, "alt_km": 388.7345180299217, "timestamp": "2025-12-24T03:53:28.395454+00:00", "meta": {"OBJECT_NAME": "E-KAGAKU-1", "OBJECT_ID": "1998-067XQ", "EPOCH": "2025-12-22T10:46:55.533504", "MEAN_MOTION": 15.60710313, "ECCENTRICITY": 0.00012968, "INCLINATION": 51.6319, "RA_OF_ASC_NODE": 91.1385, "ARG_OF_PERICENTER": 295.9007, "MEAN_ANOMALY": 64.1852, "EPHEMERIS_TYPE": 0, "CLASSIFICATION_TYPE": "U", "NORAD_CAT_ID": 65943, "ELEMENT_SET_NO": 999, "REV_AT_EPOCH": 1137, "BSTAR": 0.00086344374, "MEAN_MOTION_DOT": 0.00073283, "MEAN_MOTION_DDOT": 0}, "tle": {"line1": "1 65943U 98067XQ  25356.44925386  .00073283  00000+0  86344-3 0  9999", "line2": "2 65943  51.6319  91.1385 0001296 295.9007  64.1852 15.60710313 11376"}}, "geometry": {"type": "Point", "coordinates": [-5.570437064993189, -51.59608240748152]}}]}